{
  "type": "FeatureCollection",
  "metadata": {
    "generated": 1783932807913,
    "url": "https://earthquake.usgs.gov/earthquakes/feed/v1.0/summary/all_day.geojson",
    "title": "USGS Demo Earthquakes",
    "status": 200,
    "api": "2.7.0",
    "count": 3
  },
  "features": [
    {
      "type": "Feature",
      "properties": {
        "mag": 6.4,
        "place": "191 km SE of Lorengau, Papua New Guinea",
        "time": 1783932807913,
        "updated": 1783945721040,
        "tz": null,
        "url": "https://earthquake.usgs.gov/earthquakes/eventpage/us7000szzy",
        "detail": "https://earthquake.usgs.gov/earthquakes/feed/v1.0/detail/us7000szzy.geojson",
        "felt": null,
        "cdi": null,
        "mmi": 4.289,
        "alert": "green",
        "status": "reviewed",
        "tsunami": 0,
        "sig": 630,
        "net": "us",
        "code": "7000szzy",
        "ids": ",us7000szzy,",
        "sources": ",us,",
        "types": ",ground-failure,losspager,moment-tensor,origin,phase-data,shakemap,",
        "nst": 81,
        "dmin": 1.643,
        "rms": 0.81,
        "gap": 48,
        "magType": "mww",
        "type": "earthquake",
        "title": "M 6.4 - 191 km SE of Lorengau, Papua New Guinea"
      },
      "geometry": {
        "type": "Point",
        "coordinates": [148.5218, -3.2207, 10]
      },
      "id": "us7000szzy"
    },
    {
      "type": "Feature",
      "properties": {
        "mag": 4.8,
        "place": "south of the Fiji Islands",
        "time": 1783945198505,
        "updated": 1783948014040,
        "tz": null,
        "url": "https://earthquake.usgs.gov/earthquakes/eventpage/us7000t014",
        "detail": "https://earthquake.usgs.gov/earthquakes/feed/v1.0/detail/us7000t014.geojson",
        "felt": null,
        "cdi": null,
        "mmi": null,
        "alert": null,
        "status": "reviewed",
        "tsunami": 0,
        "sig": 354,
        "net": "us",
        "code": "7000t014",
        "ids": ",us7000t014,",
        "sources": ",us,",
        "types": ",origin,phase-data,",
        "nst": 68,
        "dmin": 5.236,
        "rms": 0.64,
        "gap": 112,
        "magType": "mb",
        "type": "earthquake",
        "title": "M 4.8 - south of the Fiji Islands"
      },
      "geometry": {
        "type": "Point",
        "coordinates": [-176.3145, -24.1915, 10]
      },
      "id": "us7000t014"
    },
    {
      "type": "Feature",
      "properties": {
        "mag": 3.2,
        "place": "41 km NW of Toyah, Texas",
        "time": 1783937783075,
        "updated": 1783939615040,
        "tz": null,
        "url": "https://earthquake.usgs.gov/earthquakes/eventpage/tx2026nrbozw",
        "detail": "https://earthquake.usgs.gov/earthquakes/feed/v1.0/detail/tx2026nrbozw.geojson",
        "felt": null,
        "cdi": null,
        "mmi": null,
        "alert": null,
        "status": "reviewed",
        "tsunami": 0,
        "sig": 158,
        "net": "tx",
        "code": "2026nrbozw",
        "ids": ",tx2026nrbozw,",
        "sources": ",tx,",
        "types": ",origin,phase-data,",
        "nst": 24,
        "dmin": 0,
        "rms": 0.1,
        "gap": 69,
        "magType": "ml",
        "type": "earthquake",
        "title": "M 3.2 - 41 km NW of Toyah, Texas"
      },
      "geometry": {
        "type": "Point",
        "coordinates": [-104.137, 31.544, 8.9709]
      },
      "id": "tx2026nrbozw"
    }
  ]
}
